[{"OBJECT_NAME":"CHUANGXIN 16A (CX-16A)","OBJECT_ID":"2022-102A","EPOCH":"2026-03-09T19:59:28.991616","MEAN_MOTION":15.05552649,"ECCENTRICITY":0.0005063,"INCLINATION":28.9941,"RA_OF_ASC_NODE":256.1289,"ARG_OF_PERICENTER":43.7318,"MEAN_ANOMALY":316.3682,"EPHEMERIS_TYPE":0,"CLASSIFICATION_TYPE":"U","NORAD_CAT_ID":53586,"ELEMENT_SET_NO":999,"REV_AT_EPOCH":19453,"BSTAR":0.00020134,"MEAN_MOTION_DOT":3.128e-5,"MEAN_MOTION_DDOT":0},{"OBJECT_NAME":"STARLINK-34761","OBJECT_ID":"2025-158Y","EPOCH":"2026-03-09T15:14:26.775168","MEAN_MOTION":15.05648073,"ECCENTRICITY":0.0001783,"INCLINATION":97.6035,"RA_OF_ASC_NODE":293.9705,"ARG_OF_PERICENTER":90.1683,"MEAN_ANOMALY":269.9748,"EPHEMERIS_TYPE":0,"CLASSIFICATION_TYPE":"U","NORAD_CAT_ID":64954,"ELEMENT_SET_NO":999,"REV_AT_EPOCH":3534,"BSTAR":0.0003582,"MEAN_MOTION_DOT":5.111e-5,"MEAN_MOTION_DDOT":0}]
