CHUANGXIN 16A (CX-16A)  
1 53586U 22102A   26068.83297444  .00003128  00000+0  20134-3 0  9993
2 53586  28.9941 256.1289 0005063  43.7318 316.3682 15.05552649194538
STARLINK-34761          
1 64954U 25158Y   26068.63503212  .00005111  00000+0  35820-3 0  9991
2 64954  97.6035 293.9705 0001783  90.1683 269.9748 15.05648073 35340
